STARLINK-31             
1 44235U 19029A   20149.25001157  .08069000  00000-0  32818+0 0  9990
2 44235  53.0018 302.3667 0003170  20.2727 306.7363 15.18635166 57164
STARLINK-22             
1 44236U 19029B   20149.08334491 -.00003864  00000-0 -43744-4 0  9997
2 44236  53.0038 267.7317 0011030 143.3345 323.5203 15.58034171 57624
STARLINK-23             
1 44237U 19029C   20149.16667824  .03469247  00000-0  14598+0 0  9998
2 44237  52.9987 302.5091 0001788 192.7458   2.1357 15.19115186 56032
STARLINK-24             
1 44238U 19029D   20148.74797631  .00001704  00000-0  11231-3 0  9994
2 44238  52.9976 303.3407 0001706 105.0300 255.0880 15.12967564 54355
STARLINK-25             
1 44239U 19029E   20149.25001157  .01272390  00000-0  43652-1 0  9995
2 44239  53.0065 302.3777 0003052 143.6473   6.5023 15.26727988 55966
STARLINK-26             
1 44240U 19029F   20148.63278562  .00012413  00000-0  26918-3 0  9999
2 44240  53.0104 264.2246 0000532  60.8495 299.2564 15.44821378 56514
STARLINK-27             
1 44241U 19029G   20149.00001157  .02902383  00000-0  12294+0 0  9990
2 44241  53.0067 303.6526 0003407  77.6914 339.2364 15.18953027 56003
STARLINK-28             
1 44242U 19029H   20149.16667824  .00049747  00000-0  65029-3 0  9999
2 44242  52.9938 261.1394 0002027 137.1754 257.0106 15.58167334 56598
STARLINK-29             
1 44243U 19029J   20148.83334491 -.00033182  00000-0 -43306-3 0  9996
2 44243  52.9990 211.4444 0010355 139.1858 239.0240 15.57737179 57264
STARLINK-30             
1 44244U 19029K   20149.25001157  .05437627  00000-0  22652+0 0  9996
2 44244  52.9985 302.0267 0001524 280.7591 310.1977 15.18943705 56004
STARLINK-21             
1 44245U 19029L   20149.08334491  .03197377  00000-0  13351+0 0  9997
2 44245  53.0000 302.9627 0003093 132.4874 350.3822 15.19058593 55999
STARLINK-33             
1 44247U 19029N   20148.83334491  .00022928  00000-0  30673-3 0  9997
2 44247  53.0052 264.5389 0002118 129.0347 128.0107 15.57948920  1799
STARLINK-34             
1 44248U 19029P   20149.25001157  .00041734  00000-0  52711-3 0  9998
2 44248  52.9999 271.9569 0002220 105.2090  71.9437 15.59158049 56390
STARLINK-61             
1 44249U 19029Q   20148.65553985  .00000469  00000-0  38101-4 0  9991
2 44249  53.0010 292.6662 0005419 310.3047  49.7473 15.18151783 56133
STARLINK-36             
1 44250U 19029R   20149.00001157  .04341108  00000-0  18355+0 0  9998
2 44250  53.0001 303.2559 0002803  15.7003 317.3276 15.18701864 55967
STARLINK-37             
1 44251U 19029S   20149.25001157  .06885524  00000-0  28567+0 0  9999
2 44251  52.9806 301.1745 0001929 327.8284 299.1360 15.18749020 55977
STARLINK-71             
1 44252U 19029T   20148.92599384  .00001397  00000-0  96897-4 0  9995
2 44252  53.0017 302.8029 0002004 111.6098 248.5106 15.12264492 55924
STARLINK-39             
1 44253U 19029U   20149.16667824  .05232638  00000-0  21487+0 0  9995
2 44253  53.0053 302.8590 0001869 301.4762 295.4378 15.18861811 56009
STARLINK-32             
1 44254U 19029V   20149.25001157  .07582142  00000-0  31092+0 0  9990
2 44254  52.9974 302.1192 0002550 350.0690 294.9172 15.18679403 55985
STARLINK-66             
1 44255U 19029W   20149.16667824  .00048403  00000-0  64020-3 0  9991
2 44255  53.0026 262.6998 0001915 128.6807 166.8310 15.57866165 56532
STARLINK-42             
1 44256U 19029X   20149.25001157  .00046251  00000-0  60275-3 0  9990
2 44256  52.9926 263.3008 0002186 166.7825  75.4973 15.58279962 56482
STARLINK-43             
1 44257U 19029Y   20149.25001157  .00044667  00000-0  14453-2 0  9996
2 44257  53.0001 251.8554 0001833 132.0617 267.8176 15.31634659 56751
STARLINK-40             
1 44258U 19029Z   20149.08334491  .03597445  00000-0  15143+0 0  9992
2 44258  52.9998 302.8885 0003123 107.2707 339.6118 15.18963403 55993
STARLINK-52             
1 44259U 19029AA  20148.40545883 -.00002019  00000-0 -20029-4 0  9998
2 44259  53.0009 215.2584 0002839 155.7636 204.3509 15.57799008 57056
STARLINK-45             
1 44260U 19029AB  20149.25001157  .07769516  00000-0  31754+0 0  9994
2 44260  53.0084 301.0303 0003033   7.9676 301.0290 15.18670459 56093
STARLINK-44             
1 44261U 19029AC  20149.25001157  .06711591  00000-0  27264+0 0  9995
2 44261  52.9967 302.1035 0002767 343.7438 289.2705 15.18794116 56035
STARLINK-49             
1 44262U 19029AD  20149.16667824  .05656579  00000-0  23550+0 0  9992
2 44262  53.0067 302.9015 0001982 313.9465 300.9565 15.18788662 56036
STARLINK-72             
1 44263U 19029AE  20149.25001157  .05375309  00000-0  22419+0 0  9996
2 44263  52.9990 301.9757 0001496 265.3834 319.5572 15.18953061 56033
STARLINK-35             
1 44264U 19029AF  20149.25001157  .06058104  00000-0  24928+0 0  9996
2 44264  52.9988 302.0622 0001724 293.5342 309.4361 15.18868393 56021
STARLINK-63             
1 44265U 19029AG  20148.58334491  .03670429  00000-0  15758+0 0  9990
2 44265  52.9997 304.4908 0001365 212.7835 348.9598 15.18182732 55953
STARLINK-54             
1 44266U 19029AH  20149.16667824  .06986638  00000-0  29046+0 0  9995
2 44266  52.9948 301.7769 0003078 357.4923 299.4372 15.18614226 55973
STARLINK-69             
1 44267U 19029AJ  20148.75001157  .03724976  00000-0  15858+0 0  9999
2 44267  52.9975 303.5650 0002935 119.0133 346.2931 15.18423571 55950
STARLINK-55             
1 44268U 19029AK  20149.25001157  .00041476  00000-0  54097-3 0  9992
2 44268  52.9936 261.5649 0002000 137.5822  42.3169 15.58307516 56550
STARLINK-57             
1 44269U 19029AL  20149.25001157  .07289721  00000-0  30037+0 0  9991
2 44269  52.9968 301.7852 0002997  40.5416 316.4460 15.18715933 56063
STARLINK-58             
1 44270U 19029AM  20149.25001157  .00052744  00000-0  65453-3 0  9993
2 44270  53.0020 272.1012 0002441 138.7029 185.9581 15.59520395 56478
STARLINK-59             
1 44271U 19029AN  20149.25001157  .04852108  00000-0  20027+0 0  9994
2 44271  52.9961 301.3579 0001483 223.5487 349.3732 15.19044562 56051
STARLINK-51             
1 44272U 19029AP  20149.25001157  .05671446  00000-0  23515+0 0  9995
2 44272  52.9975 301.9828 0001654 294.4477 302.4959 15.18917884 56029
STARLINK-60             
1 44273U 19029AQ  20148.42508325  .00029005  00000-0  38777-3 0  9996
2 44273  52.9952 204.5389 0007478  11.7299 348.3885 15.57800601 57318
STARLINK-62             
1 44274U 19029AR  20149.25001157  .00042013  00000-0  52956-3 0  9999
2 44274  53.0044 271.9849 0002399 144.2976  39.9476 15.59208417 56433
STARLINK-64             
1 44275U 19029AS  20149.25001157  .00040728  00000-0  10844-2 0  9990
2 44275  52.9924 279.7044 0004725 242.1118 239.6231 15.37811118 56323
STARLINK-65             
1 44276U 19029AT  20149.25001157  .04169602  00000-0  17133+0 0  9993
2 44276  53.0010 301.9471 0001508 191.8229 357.1331 15.19150040 56038
STARLINK-41             
1 44277U 19029AU  20149.25001157  .00046202  00000-0  53475-3 0  9993
2 44277  53.0050 264.2054 0008659 145.9361 334.6129 15.61363256 56567
STARLINK-67             
1 44278U 19029AV  20148.37496501  .35214307  12466-4  12490-2 0  9992
2 44278  52.9725 113.8189 0005497 260.1827 100.3413 16.44125369 58533
STARLINK-68             
1 44279U 19029AW  20149.25001157  .06782016  00000-0  27514+0 0  9992
2 44279  52.9984 300.9191 0001943 320.6708 294.2717 15.18777102 56003
STARLINK-38             
1 44280U 19029AX  20149.16667824  .04054264  00000-0  16786+0 0  9997
2 44280  53.0007 302.2914 0002961 111.2350 347.7034 15.19023770 56034
STARLINK-70             
1 44281U 19029AY  20149.16667824  .04091516  00000-0  16908+0 0  9995
2 44281  53.0007 301.8514 0001606 217.2700 349.6238 15.19040499 55973
STARLINK-80             
1 44282U 19029AZ  20148.71599085  .00002850  00000-0  12537-3 0  9996
2 44282  53.0246 269.2401 0004336 150.9906 209.1333 15.25216763 54864
STARLINK-56             
1 44283U 19029BA  20148.66667824  .04339776  00000-0  18614+0 0  9990
2 44283  52.9991 304.6592 0001897 312.1997 303.3382 15.18197960 55957
STARLINK-73             
1 44284U 19029BB  20149.16667824  .03595798  00000-0  15083+0 0  9991
2 44284  53.0006 302.3492 0003047 116.5321 348.4236 15.19087371 56029
STARLINK-50             
1 44285U 19029BC  20149.00001157 -.00016221  00000-0 -91555-3 0  9996
2 44285  53.0001 303.1826 0001269 111.0563 127.0915 15.12129876 57056
STARLINK-75             
1 44286U 19029BD  20149.08334491 -.00000423  00000-0  11574-5 0  9996
2 44286  53.0053 264.7389 0009773 174.6094 330.7058 15.57873258 57603
STARLINK-76             
1 44287U 19029BE  20149.25001157  .07351211  00000-0  30257+0 0  9999
2 44287  52.9980 302.1471 0002471 357.7813 299.1864 15.18708825 57091
STARLINK-79             
1 44288U 19029BF  20149.08334491  .04067771  00000-0  16887+0 0  9996
2 44288  53.0074 303.3633 0001998 182.3001 354.6365 15.18910142 57073
STARLINK-48             
1 44289U 19029BG  20148.67895431 -.00007470  00000-0 -32962-3 0  9991
2 44289  52.9998 278.8264 0003010 128.7951 231.3313 15.19829807 57362
STARLINK-78             
1 44290U 19029BH  20149.00001157  .03625260  00000-0  15300+0 0  9992
2 44290  53.0079 303.6347 0003222  91.3354 343.6492 15.18841440 57060
STARLINK-77             
1 44291U 19029BJ  20148.75001157  .03216893  00000-0  13626+0 0  9991
2 44291  53.0082 304.9695 0002001 169.6206   1.6835 15.18528180 57025
STARLINK-81             
1 44292U 19029BK  20149.16667824  .06814268  00000-0  28406+0 0  9992
2 44292  53.0063 303.0811 0003334 359.9668 302.9671 15.18640814 57070
STARLINK-74             
1 44293U 19029BL  20149.25001157  .07931063  00000-0  32330+0 0  9999
2 44293  53.0046 302.5463 0003213  27.8937 311.0803 15.18651279 57092
STARLINK-53             
1 44294U 19029BM  20149.25001157  .04057867  00000-0  16732+0 0  9996
2 44294  52.9976 301.3216 0001864 183.6858 359.2924 15.19156910 57102
